HIMAWARI-8              
1 40267U 14060A   23350.89285375 -.00000263  00000+0  00000+0 0  9990
2 40267   0.0022 115.9468 0000849 147.8275 283.5809  1.00272164 33604
